GLOBALSTAR M067 [+]     
1 32263U 07048A   23319.69771277 -.00000075  00000+0  16553-3 0  9994
2 32263  51.9733 291.5080 0000605 150.7306  20.9842 12.40634424737556
GLOBALSTAR M070 [+]     
1 32264U 07048B   23319.78468743 -.00000105  00000+0 -68142-5 0  9994
2 32264  51.9738  93.5380 0000518 130.6667  36.3943 12.62282006740494
GLOBALSTAR M066 [+]     
1 32265U 07048C   23319.74371041 -.00000084  00000+0  10809-3 0  9995
2 32265  51.9687 315.7171 0000771  53.9550 118.6791 12.62276218742758
GLOBALSTAR M068 [-]     
1 32266U 07048D   23319.63444458 -.00000056  00000+0  26528-3 0  9991
2 32266  51.9887 268.8459 0000861 350.0186 181.7008 12.62771268744629
GLOBALSTAR M079 [+]     
1 37188U 10054A   23319.80660053 -.00000115  00000+0 -63098-4 0  9991
2 37188  52.0021 103.5116 0001118 106.9261  40.6616 12.62269899603288
GLOBALSTAR M074 [+]     
1 37189U 10054B   23319.72433426 -.00000117  00000+0 -72838-4 0  9999
2 37189  51.9998 103.1735 0000887 109.8029 264.3626 12.62271936603886
GLOBALSTAR M076 [+]     
1 37190U 10054C   23319.67150940 -.00000115  00000+0 -62466-4 0  9996
2 37190  52.0011 103.4543 0001292 129.3905 243.5107 12.62263811603591
GLOBALSTAR M077 [+]     
1 37191U 10054D   23319.51553576 -.00000104  00000+0 -29154-5 0  9998
2 37191  52.0078  60.6190 0000632 121.9676 321.0901 12.62266376603949
